XINGWANG2_L_00011041-01
1 11440U 25668YT  26075.69964120  .00000000  00000+0  00000-0 0  9993
2 11440  30.0000 300.0000 0000000   0.0000  33.3333 13.30467610    18
XINGWANG2_L_00011041-02
1 11441U 24093PL  26075.69964120  .00000000  00000+0  00000-0 0  9995
2 11441  30.0000 300.0000 0000000   0.0000  43.3333 13.30467610    10
XINGWANG2_L_00011041-03
1 11442U 25013LD  26075.69964120  .00000000  00000+0  00000-0 0  9999
2 11442  30.0000 300.0000 0000000   0.0000  53.3333 13.30467610    12
XINGWANG2_L_00011041-04
1 11443U 24321Z   26075.69964120  .00000000  00000+0  00000-0 0  9991
2 11443  30.0000 300.0000 0000000   0.0000  63.3333 13.30467610    14
XINGWANG2_L_00011041-05
1 11444U 26293CH  26075.69964120  .00000000  00000+0  00000-0 0  9992
2 11444  30.0000 300.0000 0000000   0.0000  73.3333 13.30467610    16
XINGWANG2_L_00011041-06
1 11445U 24912IZ  26075.69964120  .00000000  00000+0  00000-0 0  9999
2 11445  30.0000 300.0000 0000000   0.0000  83.3333 13.30467610    18
XINGWANG2_L_00011041-07
1 11446U 22805XA  26075.69964120  .00000000  00000+0  00000-0 0  9999
2 11446  30.0000 300.0000 0000000   0.0000  93.3333 13.30467610    10
XINGWANG2_L_00011041-08
1 11447U 22657DD  26075.69964120  .00000000  00000+0  00000-0 0  9995
2 11447  30.0000 300.0000 0000000   0.0000 103.3333 13.30467610    13
XINGWANG2_L_00011041-09
1 11448U 26107DT  26075.69964120  .00000000  00000+0  00000-0 0  9990
2 11448  30.0000 300.0000 0000000   0.0000 113.3333 13.30467610    15
XINGWANG2_L_00011041-10
1 11449U 25599EF  26075.69964120  .00000000  00000+0  00000-0 0  9995
2 11449  30.0000 300.0000 0000000   0.0000 123.3333 13.30467610    17
XINGWANG2_L_00011041-11
1 11450U 22291YS  26075.69964120  .00000000  00000+0  00000-0 0  9993
2 11450  30.0000 300.0000 0000000   0.0000 133.3333 13.30467610    10
XINGWANG2_L_00011041-12
1 11451U 25927J   26075.69964120  .00000000  00000+0  00000-0 0  9993
2 11451  30.0000 300.0000 0000000   0.0000 143.3333 13.30467610    12
XINGWANG2_L_00011041-13
1 11452U 25715IR  26075.69964120  .00000000  00000+0  00000-0 0  9999
2 11452  30.0000 300.0000 0000000   0.0000 153.3333 13.30467610    14
XINGWANG2_L_00011041-14
1 11453U 24149XP  26075.69964120  .00000000  00000+0  00000-0 0  9990
2 11453  30.0000 300.0000 0000000   0.0000 163.3333 13.30467610    16
XINGWANG2_L_00011041-15
1 11454U 24650FN  26075.69964120  .00000000  00000+0  00000-0 0  9998
2 11454  30.0000 300.0000 0000000   0.0000 173.3333 13.30467610    18
XINGWANG2_L_00011041-16
1 11455U 22266QH  26075.69964120  .00000000  00000+0  00000-0 0  9990
2 11455  30.0000 300.0000 0000000   0.0000 183.3333 13.30467610    10
XINGWANG2_L_00011041-17
1 11456U 24430MJ  26075.69964120  .00000000  00000+0  00000-0 0  9996
2 11456  30.0000 300.0000 0000000   0.0000 193.3333 13.30467610    12
XINGWANG2_L_00011041-18
1 11457U 22293WV  26075.69964120  .00000000  00000+0  00000-0 0  9992
2 11457  30.0000 300.0000 0000000   0.0000 203.3333 13.30467610    15
XINGWANG2_L_00011041-19
1 11458U 23258PK  26075.69964120  .00000000  00000+0  00000-0 0  9995
2 11458  30.0000 300.0000 0000000   0.0000 213.3333 13.30467610    17
XINGWANG2_L_00011041-20
1 11459U 24100XF  26075.69964120  .00000000  00000+0  00000-0 0  9993
2 11459  30.0000 300.0000 0000000   0.0000 223.3333 13.30467610    19
XINGWANG2_L_00011041-21
1 11460U 25436AT  26075.69964120  .00000000  00000+0  00000-0 0  9998
2 11460  30.0000 300.0000 0000000   0.0000 233.3333 13.30467610    12
XINGWANG2_L_00011041-22
1 11461U 22370RJ  26075.69964120  .00000000  00000+0  00000-0 0  9993
2 11461  30.0000 300.0000 0000000   0.0000 243.3333 13.30467610    14
XINGWANG2_L_00011041-23
1 11462U 23513U   26075.69964120  .00000000  00000+0  00000-0 0  9994
2 11462  30.0000 300.0000 0000000   0.0000 253.3333 13.30467610    16
XINGWANG2_L_00011041-24
1 11463U 24671LO  26075.69964120  .00000000  00000+0  00000-0 0  9991
2 11463  30.0000 300.0000 0000000   0.0000 263.3333 13.30467610    18
XINGWANG2_L_00011041-25
1 11464U 26330ID  26075.69964120  .00000000  00000+0  00000-0 0  9996
2 11464  30.0000 300.0000 0000000   0.0000 273.3333 13.30467610    10
XINGWANG2_L_00011041-26
1 11465U 24823QT  26075.69964120  .00000000  00000+0  00000-0 0  9992
2 11465  30.0000 300.0000 0000000   0.0000 283.3333 13.30467610    12
XINGWANG2_L_00011041-27
1 11466U 25373RT  26075.69964120  .00000000  00000+0  00000-0 0  9994
2 11466  30.0000 300.0000 0000000   0.0000 293.3333 13.30467610    14
XINGWANG2_L_00011041-28
1 11467U 25923ZJ  26075.69964120  .00000000  00000+0  00000-0 0  9996
2 11467  30.0000 300.0000 0000000   0.0000 303.3333 13.30467610    17
XINGWANG2_L_00011041-29
1 11468U 25990MF  26075.69964120  .00000000  00000+0  00000-0 0  9991
2 11468  30.0000 300.0000 0000000   0.0000 313.3333 13.30467610    19
XINGWANG2_L_00011041-30
1 11469U 26916EK  26075.69964120  .00000000  00000+0  00000-0 0  9991
2 11469  30.0000 300.0000 0000000   0.0000 323.3333 13.30467610    11
XINGWANG2_L_00011041-31
1 11470U 23506IW  26075.69964120  .00000000  00000+0  00000-0 0  9995
2 11470  30.0000 300.0000 0000000   0.0000 333.3333 13.30467610    14
XINGWANG2_L_00011041-32
1 11471U 22666OE  26075.69964120  .00000000  00000+0  00000-0 0  9992
2 11471  30.0000 300.0000 0000000   0.0000 343.3333 13.30467610    16
XINGWANG2_L_00011041-33
1 11472U 25185MC  26075.69964120  .00000000  00000+0  00000-0 0  9992
2 11472  30.0000 300.0000 0000000   0.0000 353.3333 13.30467610    18
XINGWANG2_L_00011041-34
1 11473U 26401SO  26075.69964120  .00000000  00000+0  00000-0 0  9995
2 11473  30.0000 300.0000 0000000   0.0000   3.3333 13.30467610    11
XINGWANG2_L_00011041-35
1 11474U 26955FY  26075.69964120  .00000000  00000+0  00000-0 0  9990
2 11474  30.0000 300.0000 0000000   0.0000  13.3333 13.30467610    13
XINGWANG2_L_00011041-36
1 11475U 26379CF  26075.69964120  .00000000  00000+0  00000-0 0  9991
2 11475  30.0000 300.0000 0000000   0.0000  23.3333 13.30467610    15
XINGWANG2_L_00011042-01
1 11476U 23263YI  26075.69964120  .00000000  00000+0  00000-0 0  9991
2 11476  30.0000 307.5000 0000000   0.0000  34.1667 13.30467610    18
XINGWANG2_L_00011042-02
1 11477U 26937GD  26075.69964120  .00000000  00000+0  00000-0 0  9993
2 11477  30.0000 307.5000 0000000   0.0000  44.1667 13.30467610    10
XINGWANG2_L_00011042-03
1 11478U 24976IA  26075.69964120  .00000000  00000+0  00000-0 0  9995
2 11478  30.0000 307.5000 0000000   0.0000  54.1667 13.30467610    12
XINGWANG2_L_00011042-04
1 11479U 24974TV  26075.69964120  .00000000  00000+0  00000-0 0  9994
2 11479  30.0000 307.5000 0000000   0.0000  64.1667 13.30467610    14
XINGWANG2_L_00011042-05
1 11480U 25517VR  26075.69964120  .00000000  00000+0  00000-0 0  9990
2 11480  30.0000 307.5000 0000000   0.0000  74.1667 13.30467610    17
XINGWANG2_L_00011042-06
1 11481U 23715CZ  26075.69964120  .00000000  00000+0  00000-0 0  9999
2 11481  30.0000 307.5000 0000000   0.0000  84.1667 13.30467610    19
XINGWANG2_L_00011042-07
1 11482U 22225YB  26075.69964120  .00000000  00000+0  00000-0 0  9995
2 11482  30.0000 307.5000 0000000   0.0000  94.1667 13.30467610    11
XINGWANG2_L_00011042-08
1 11483U 23953XU  26075.69964120  .00000000  00000+0  00000-0 0  9995
2 11483  30.0000 307.5000 0000000   0.0000 104.1667 13.30467610    14
XINGWANG2_L_00011042-09
1 11484U 25365NR  26075.69964120  .00000000  00000+0  00000-0 0  9995
2 11484  30.0000 307.5000 0000000   0.0000 114.1667 13.30467610    16
XINGWANG2_L_00011042-10
1 11485U 24174GP  26075.69964120  .00000000  00000+0  00000-0 0  9993
2 11485  30.0000 307.5000 0000000   0.0000 124.1667 13.30467610    18
XINGWANG2_L_00011042-11
1 11486U 23337VN  26075.69964120  .00000000  00000+0  00000-0 0  9994
2 11486  30.0000 307.5000 0000000   0.0000 134.1667 13.30467610    10
XINGWANG2_L_00011042-12
1 11487U 25163TJ  26075.69964120  .00000000  00000+0  00000-0 0  9994
2 11487  30.0000 307.5000 0000000   0.0000 144.1667 13.30467610    12
XINGWANG2_L_00011042-13
1 11488U 22471ZH  26075.69964120  .00000000  00000+0  00000-0 0  9994
2 11488  30.0000 307.5000 0000000   0.0000 154.1667 13.30467610    14
XINGWANG2_L_00011042-14
1 11489U 26854KX  26075.69964120  .00000000  00000+0  00000-0 0  9994
2 11489  30.0000 307.5000 0000000   0.0000 164.1667 13.30467610    16
XINGWANG2_L_00011042-15
1 11490U 26503HD  26075.69964120  .00000000  00000+0  00000-0 0  9997
2 11490  30.0000 307.5000 0000000   0.0000 174.1667 13.30467610    19
XINGWANG2_L_00011042-16
1 11491U 24411QK  26075.69964120  .00000000  00000+0  00000-0 0  9994
2 11491  30.0000 307.5000 0000000   0.0000 184.1667 13.30467610    11
XINGWANG2_L_00011042-17
1 11492U 25498RR  26075.69964120  .00000000  00000+0  00000-0 0  9991
2 11492  30.0000 307.5000 0000000   0.0000 194.1667 13.30467610    13
XINGWANG2_L_00011042-18
1 11493U 26674IR  26075.69964120  .00000000  00000+0  00000-0 0  9999
2 11493  30.0000 307.5000 0000000   0.0000 204.1667 13.30467610    16
XINGWANG2_L_00011042-19
1 11494U 24696UX  26075.69964120  .00000000  00000+0  00000-0 0  9992
2 11494  30.0000 307.5000 0000000   0.0000 214.1667 13.30467610    18
XINGWANG2_L_00011042-20
1 11495U 22850PG  26075.69964120  .00000000  00000+0  00000-0 0  9993
2 11495  30.0000 307.5000 0000000   0.0000 224.1667 13.30467610    10
XINGWANG2_L_00011042-21
1 11496U 22506VU  26075.69964120  .00000000  00000+0  00000-0 0  9992
2 11496  30.0000 307.5000 0000000   0.0000 234.1667 13.30467610    12
XINGWANG2_L_00011042-22
1 11497U 23221VT  26075.69964120  .00000000  00000+0  00000-0 0  9998
2 11497  30.0000 307.5000 0000000   0.0000 244.1667 13.30467610    14
XINGWANG2_L_00011042-23
1 11498U 26846AQ  26075.69964120  .00000000  00000+0  00000-0 0  9995
2 11498  30.0000 307.5000 0000000   0.0000 254.1667 13.30467610    16
XINGWANG2_L_00011042-24
1 11499U 26627SW  26075.69964120  .00000000  00000+0  00000-0 0  9993
2 11499  30.0000 307.5000 0000000   0.0000 264.1667 13.30467610    18
